start=new Date('2022-11-22T00:00:00.000Z').valueOf();
sats=[{"TLE_LINE2":"2 44760  53.0556 233.8503 0001910  48.2563 311.8589 15.06397777166651","DECAY_DATE":null,"SITE":"AFETR","REV_AT_EPOCH":"16665","OBJECT_TYPE":"PAYLOAD","MEAN_ELEMENT_THEORY":"SGP4","MEAN_MOTION":"15.06397777","EPHEMERIS_TYPE":"0","MEAN_MOTION_DOT":"-0.00000023","SEMIMAJOR_AXIS":"6925.355","LAUNCH_DATE":"2019-11-11","OBJECT_NAME":"STARLINK-1055","ARG_OF_PERICENTER":"48.2563","MEAN_MOTION_DDOT":"0.0000000000000","CLASSIFICATION_TYPE":"U","INCLINATION":"53.0556","ELEMENT_SET_NO":"999","NORAD_CAT_ID":"44760","BSTAR":"0.00001734200000","RA_OF_ASC_NODE":"233.8503","ECCENTRICITY":"0.00019100","RCS_SIZE":"LARGE","PERIOD":"95.592","PERIAPSIS":"545.898","OBJECT_ID":"2019-074AZ","TLE_LINE1":"1 44760U 19074AZ  22325.18790078 -.00000023  00000-0  17342-4 0  9993","APOAPSIS":"548.543","COUNTRY_CODE":"US","MEAN_ANOMALY":"311.8589","EPOCH":"2022-11-21T04:30:34.627392","FILE":"3666297","REF_FRAME":"TEME","GP_ID":"218395787","CENTER_NAME":"EARTH","TIME_SYSTEM":"UTC"},{"PERIAPSIS":"545.941","ECCENTRICITY":"0.00018070","RCS_SIZE":"LARGE","PERIOD":"95.592","TLE_LINE1":"1 44761U 19074BA  22325.19895568  .00000579  00000-0  57743-4 0  9999","APOAPSIS":"548.443","OBJECT_ID":"2019-074BA","REF_FRAME":"TEME","GP_ID":"218396536","TIME_SYSTEM":"UTC","CENTER_NAME":"EARTH","COUNTRY_CODE":"US","MEAN_ANOMALY":"303.0330","EPOCH":"2022-11-21T04:46:29.770752","FILE":"3666297","CLASSIFICATION_TYPE":"U","MEAN_MOTION_DDOT":"0.0000000000000","ARG_OF_PERICENTER":"57.0832","INCLINATION":"53.0547","LAUNCH_DATE":"2019-11-11","SEMIMAJOR_AXIS":"6925.327","MEAN_MOTION_DOT":"0.00000579","OBJECT_NAME":"STARLINK-1056","RA_OF_ASC_NODE":"233.8024","ELEMENT_SET_NO":"999","BSTAR":"0.00005774300000","NORAD_CAT_ID":"44761","EPHEMERIS_TYPE":"0","MEAN_MOTION":"15.06407018","SITE":"AFETR","DECAY_DATE":null,"REV_AT_EPOCH":"16665","TLE_LINE2":"2 44761  53.0547 233.8024 0001807  57.0832 303.0330 15.06407018166659","MEAN_ELEMENT_THEORY":"SGP4","OBJECT_TYPE":"PAYLOAD"},{"TLE_LINE2":"2 44762  53.0526 211.1080 0001638  84.0861 276.0315 15.06403627167017","REV_AT_EPOCH":"16701","SITE":"AFETR","DECAY_DATE":null,"MEAN_ELEMENT_THEORY":"SGP4","OBJECT_TYPE":"PAYLOAD","MEAN_MOTION":"15.06403627","EPHEMERIS_TYPE":"0","OBJECT_NAME":"STARLINK-1057","LAUNCH_DATE":"2019-11-11","MEAN_MOTION_DOT":"0.00002533","SEMIMAJOR_AXIS":"6925.337","INCLINATION":"53.0526","CLASSIFICATION_TYPE":"U","MEAN_MOTION_DDOT":"0.0000000000000","ARG_OF_PERICENTER":"84.0861","BSTAR":"0.00018890000000","NORAD_CAT_ID":"44762","ELEMENT_SET_NO":"999","RA_OF_ASC_NODE":"211.1080","APOAPSIS":"548.337","TLE_LINE1":"1 44762U 19074BB  22325.79792784  .00002533  00000-0  18890-3 0  9993","OBJECT_ID":"2019-074BB","PERIAPSIS":"546.068","PERIOD":"95.592","RCS_SIZE":"LARGE","ECCENTRICITY":"0.00016380","FILE":"3666658","EPOCH":"2022-11-21T19:09:00.965376","COUNTRY_CODE":"US","MEAN_ANOMALY":"276.0315","CENTER_NAME":"EARTH","TIME_SYSTEM":"UTC","GP_ID":"218429258","REF_FRAME":"TEME"},{"EPHEMERIS_TYPE":"0","MEAN_MOTION":"15.06394852","REV_AT_EPOCH":"16673","DECAY_DATE":null,"SITE":"AFETR","TLE_LINE2":"2 44763  53.0533 231.2944 0001618  74.2932 285.8235 15.06394852166732","OBJECT_TYPE":"PAYLOAD","MEAN_ELEMENT_THEORY":"SGP4","OBJECT_ID":"2019-074BC","APOAPSIS":"548.350","TLE_LINE1":"1 44763U 19074BC  22325.75090741  .00000315  00000-0  40033-4 0  9995","RCS_SIZE":"LARGE","PERIOD":"95.592","ECCENTRICITY":"0.00016180","PERIAPSIS":"546.109","TIME_SYSTEM":"UTC","CENTER_NAME":"EARTH","REF_FRAME":"TEME","GP_ID":"218430009","FILE":"3666658","COUNTRY_CODE":"US","MEAN_ANOMALY":"285.8235","EPOCH":"2022-11-21T18:01:18.400224","INCLINATION":"53.0533","MEAN_MOTION_DDOT":"0.0000000000000","ARG_OF_PERICENTER":"74.2932","CLASSIFICATION_TYPE":"U","OBJECT_NAME":"STARLINK-1058","SEMIMAJOR_AXIS":"6925.364","MEAN_MOTION_DOT":"0.00000315","LAUNCH_DATE":"2019-11-11","RA_OF_ASC_NODE":"231.2944","NORAD_CAT_ID":"44763","BSTAR":"0.00004003300000","ELEMENT_SET_NO":"999"},{"APOAPSIS":"535.465","TLE_LINE1":"1 44764U 19074BD  22325.84518905  .00012895  00000-0  77611-3 0  9990","OBJECT_ID":"2019-074BD","PERIAPSIS":"529.916","RCS_SIZE":"LARGE","ECCENTRICITY":"0.00040150","PERIOD":"95.292","FILE":"3666658","COUNTRY_CODE":"US","EPOCH":"2022-11-21T20:17:04.333920","MEAN_ANOMALY":"223.0986","TIME_SYSTEM":"UTC","CENTER_NAME":"EARTH","REF_FRAME":"TEME","GP_ID":"218430260","OBJECT_NAME":"STARLINK-1059","LAUNCH_DATE":"2019-11-11","MEAN_MOTION_DOT":"0.00012895","SEMIMAJOR_AXIS":"6910.826","INCLINATION":"53.0564","CLASSIFICATION_TYPE":"U","MEAN_MOTION_DDOT":"0.0000000000000","ARG_OF_PERICENTER":"137.0319","BSTAR":"0.00077611000000","NORAD_CAT_ID":"44764","ELEMENT_SET_NO":"999","RA_OF_ASC_NODE":"208.6754","MEAN_MOTION":"15.11151013","EPHEMERIS_TYPE":"0","TLE_LINE2":"2 44764  53.0564 208.6754 0004015 137.0319 223.0986 15.11151013167054","REV_AT_EPOCH":"16705","SITE":"AFETR","DECAY_DATE":null,"MEAN_ELEMENT_THEORY":"SGP4","OBJECT_TYPE":"PAYLOAD"},{"REV_AT_EPOCH":"16699","DECAY_DATE":null,"SITE":"AFETR","TLE_LINE2":"2 44765  53.0543 211.6353 0001613  66.8878 293.2281 15.06398391166996","OBJECT_TYPE":"PAYLOAD","MEAN_ELEMENT_THEORY":"SGP4","EPHEMERIS_TYPE":"0","MEAN_MOTION":"15.06398391","INCLINATION":"53.0543","ARG_OF_PERICENTER":"66.8878","MEAN_MOTION_DDOT":"0.0000000000000","CLASSIFICATION_TYPE":"U","OBJECT_NAME":"STARLINK-1060","MEAN_MOTION_DOT":"0.00001037","SEMIMAJOR_AXIS":"6925.353","LAUNCH_DATE":"2019-11-11","RA_OF_ASC_NODE":"211.6353","NORAD_CAT_ID":"44765","BSTAR":"0.00008848500000","ELEMENT_SET_NO":"999","OBJECT_ID":"2019-074BE","TLE_LINE1":"1 44765U 19074BE  22325.67997590  .00001037  00000-0  88485-4 0  9991","APOAPSIS":"548.336","RCS_SIZE":"LARGE","PERIOD":"95.592","ECCENTRICITY":"0.00016130","PERIAPSIS":"546.101","TIME_SYSTEM":"UTC","CENTER_NAME":"EARTH","GP_ID":"218431007","REF_FRAME":"TEME","FILE":"3666658","MEAN_ANOMALY":"293.2281","COUNTRY_CODE":"US","EPOCH":"2022-11-21T16:19:09.917760"},{"EPHEMERIS_TYPE":"0","MEAN_MOTION":"15.06396607","SITE":"AFETR","DECAY_DATE":null,"REV_AT_EPOCH":"16675","TLE_LINE2":"2 44766  53.0528 230.7521 0001520  68.8103 291.3048 15.06396607166751","MEAN_ELEMENT_THEORY":"SGP4","OBJECT_TYPE":"PAYLOAD","PERIAPSIS":"546.171","RCS_SIZE":"LARGE","ECCENTRICITY":"0.00015200","PERIOD":"95.592","TLE_LINE1":"1 44766U 19074BF  22325.87717557  .00001266  00000-0  10389-3 0  9998","APOAPSIS":"548.277","OBJECT_ID":"2019-074BF","REF_FRAME":"TEME","GP_ID":"218429759","CENTER_NAME":"EARTH","TIME_SYSTEM":"UTC","MEAN_ANOMALY":"291.3048","COUNTRY_CODE":"US","EPOCH":"2022-11-21T21:03:07.969248","FILE":"3666658","CLASSIFICATION_TYPE":"U","MEAN_MOTION_DDOT":"0.0000000000000","ARG_OF_PERICENTER":"68.8103","INCLINATION":"53.0528","LAUNCH_DATE":"2019-11-11","SEMIMAJOR_AXIS":"6925.359","MEAN_MOTION_DOT":"0.00001266","OBJECT_NAME":"STARLINK-1061","RA_OF_ASC_NODE":"230.7521","ELEMENT_SET_NO":"999","BSTAR":"0.00010389000000","NORAD_CAT_ID":"44766"},{"MEAN_ANOMALY":"304.8008","COUNTRY_CODE":"US","EPOCH":"2022-11-21T11:17:54.745728","FILE":"3666403","REF_FRAME":"TEME","GP_ID":"218405501","TIME_SYSTEM":"UTC","CENTER_NAME":"EARTH","ECCENTRICITY":"0.00017320","RCS_SIZE":"LARGE","PERIOD":"95.592","PERIAPSIS":"546.028","OBJECT_ID":"2019-074BG","APOAPSIS":"548.427","TLE_LINE1":"1 44767U 19074BG  22325.47077252  .00000714  00000-0  66857-4 0  9995","ELEMENT_SET_NO":"999","NORAD_CAT_ID":"44767","BSTAR":"0.00006685700000","RA_OF_ASC_NODE":"232.5686","SEMIMAJOR_AXIS":"6925.363","MEAN_MOTION_DOT":"0.00000714","LAUNCH_DATE":"2019-11-11","OBJECT_NAME":"STARLINK-1062","MEAN_MOTION_DDOT":"0.0000000000000","ARG_OF_PERICENTER":"55.3144","CLASSIFICATION_TYPE":"U","INCLINATION":"53.0551","MEAN_MOTION":"15.06395338","EPHEMERIS_TYPE":"0","OBJECT_TYPE":"PAYLOAD","MEAN_ELEMENT_THEORY":"SGP4","TLE_LINE2":"2 44767  53.0551 232.5686 0001732  55.3144 304.8008 15.06395338166869","DECAY_DATE":null,"SITE":"AFETR","REV_AT_EPOCH":"16686"},{"TIME_SYSTEM":"UTC","CENTER_NAME":"EARTH","GP_ID":"218395788","REF_FRAME":"TEME","FILE":"3666297","MEAN_ANOMALY":"311.4585","COUNTRY_CODE":"US","EPOCH":"2022-11-21T03:53:25.541088","APOAPSIS":"548.533","TLE_LINE1":"1 44768U 19074BH  22325.16210117 -.00000922  00000-0 -42968-4 0  9991","OBJECT_ID":"2019-074BH","PERIAPSIS":"545.850","PERIOD":"95.592","RCS_SIZE":"LARGE","ECCENTRICITY":"0.00019370","RA_OF_ASC_NODE":"233.9480","BSTAR":"-0.00004296800000","NORAD_CAT_ID":"44768","ELEMENT_SET_NO":"999","INCLINATION":"53.0550","CLASSIFICATION_TYPE":"U","MEAN_MOTION_DDOT":"0.0000000000000","ARG_OF_PERICENTER":"48.6570","OBJECT_NAME":"STARLINK-1063","LAUNCH_DATE":"2019-11-11","SEMIMAJOR_AXIS":"6925.326","MEAN_MOTION_DOT":"-0.00000922","EPHEMERIS_TYPE":"0","MEAN_MOTION":"15.06407240","MEAN_ELEMENT_THEORY":"SGP4","OBJECT_TYPE":"PAYLOAD","REV_AT_EPOCH":"16665","SITE":"AFETR","DECAY_DATE":null,"TLE_LINE2":"2 44768  53.0550 233.9480 0001937  48.6570 311.4585 15.06407240166658"},{"OBJECT_ID":"2019-074BK","APOAPSIS":"493.589","TLE_LINE1":"1 44770U 19074BK  22325.92448137  .00035428  00000-0  13977-2 0  9996","PERIOD":"94.412","RCS_SIZE":"LARGE","ECCENTRICITY":"0.00051110","PERIAPSIS":"486.568","CENTER_NAME":"EARTH","TIME_SYSTEM":"UTC","GP_ID":"218430508","REF_FRAME":"TEME","FILE":"3666658","EPOCH":"2022-11-21T22:11:15.190368","COUNTRY_CODE":"US","MEAN_ANOMALY":"209.3848","INCLINATION":"53.0049","MEAN_MOTION_DDOT":"0.0000000000000","ARG_OF_PERICENTER":"150.7436","CLASSIFICATION_TYPE":"U","OBJECT_NAME":"STARLINK-1065","SEMIMAJOR_AXIS":"6868.213","MEAN_MOTION_DOT":"0.00035428","LAUNCH_DATE":"2019-11-11","RA_OF_ASC_NODE":"199.9536","NORAD_CAT_ID":"44770","BSTAR":"0.00139770000000","ELEMENT_SET_NO":"999","EPHEMERIS_TYPE":"0","MEAN_MOTION":"15.25236223","REV_AT_EPOCH":"16714","DECAY_DATE":null,"SITE":"AFETR","TLE_LINE2":"2 44770  53.0049 199.9536 0005111 150.7436 209.3848 15.25236223167145","OBJECT_TYPE":"PAYLOAD","MEAN_ELEMENT_THEORY":"SGP4"}];
